IRIDIUM 112             
1 41925U 17003J   24130.49377585  .00000178  00000+0  56437-4 0  9994
2 41925  86.3991  49.5383 0002514  86.3990 273.7494 14.34217199383122
IRIDIUM 111             
1 41926U 17003K   24129.85317685  .00000391  00000+0  13245-3 0  9994
2 41926  86.3993  49.8597 0002514  78.9723 281.1755 14.34220204382983
IRIDIUM 113             
1 42803U 17039A   24130.46105274  .00000331  00000+0  11106-3 0  9994
2 42803  86.3932 283.3776 0002182  87.4537 272.6908 14.34219253361001
IRIDIUM 123             
1 42804U 17039B   24130.57229916  .00000145  00000+0  44862-4 0  9996
2 42804  86.3935 314.8513 0002272  83.7090 276.4364 14.34217478359784
IRIDIUM 120             
1 42805U 17039C   24130.17563802  .00000099  00000+0  28159-4 0  9997
2 42805  86.3919 283.3788 0002086  92.1994 267.9441 14.34217725360958
IRIDIUM 115             
1 42806U 17039D   24129.89291060  .00000076  00000+0  16539-4 0  9993
2 42806  86.4459 283.5159 0002291  88.7005 271.4458 14.43278379363307
IRIDIUM 118             
1 42807U 17039E   24130.04586690 -.00000034  00000+0 -19096-4 0  9996
2 42807  86.3932 315.0730 0002137  93.6330 266.5110 14.34216282359719
IRIDIUM 117             
1 42808U 17039F   24129.92535656  .00000130  00000+0  39212-4 0  9995
2 42808  86.3934 315.0882 0002111  84.7640 275.3797 14.34217289359714
